{
    "links": {
        "self": "http://www.neowsapp.com/rest/v1/neo/3478249?api_key=iIulBulltgU6a56xZRHN4H3l9WmuAYTsLGpBGhQ2"
    },
    "id": "3478249",
    "neo_reference_id": "3478249",
    "name": "(2009 WQ25)",
    "designation": "2009 WQ25",
    "nasa_jpl_url": "http://ssd.jpl.nasa.gov/sbdb.cgi?sstr=3478249",
    "absolute_magnitude_h": 23.9,
    "estimated_diameter": {
        "kilometers": {
            "estimated_diameter_min": 0.04411182,
            "estimated_diameter_max": 0.0986370281
        },
        "meters": {
            "estimated_diameter_min": 44.1118199997,
            "estimated_diameter_max": 98.6370281305
        },
        "miles": {
            "estimated_diameter_min": 0.0274098057,
            "estimated_diameter_max": 0.0612901888
        },
        "feet": {
            "estimated_diameter_min": 144.7238235278,
            "estimated_diameter_max": 323.6123073718
        }
    },
    "is_potentially_hazardous_asteroid": false,
    "close_approach_data": [
        {
            "close_approach_date": "2009-11-08",
            "close_approach_date_full": "2009-Nov-08 12:35",
            "epoch_date_close_approach": 1257683700000,
            "relative_velocity": {
                "kilometers_per_second": "20.3973709821",
                "kilometers_per_hour": "73430.5355353883",
                "miles_per_hour": "45626.8791497528"
            },
            "miss_distance": {
                "astronomical": "0.0298359677",
                "lunar": "11.6061914353",
                "kilometers": "4463397.217308799",
                "miles": "2773426.4253434662"
            },
            "orbiting_body": "Earth"
        }
    ],
    "orbital_data": {
        "orbit_id": "9",
        "orbit_determination_date": "2017-04-06 08:59:02",
        "first_observation_date": "2009-11-21",
        "last_observation_date": "2009-11-27",
        "data_arc_in_days": 6,
        "observations_used": 27,
        "orbit_uncertainty": "9",
        "minimum_orbit_intersection": ".000884494",
        "jupiter_tisserand_invariant": "3.047",
        "epoch_osculation": "2455158.5",
        "eccentricity": ".7198643653969067",
        "semi_major_axis": "2.489829775656208",
        "inclination": "4.46434878780733",
        "ascending_node_longitude": "44.76185989628334",
        "orbital_period": "1435.003338202923",
        "perihelion_distance": ".6974900442571291",
        "perihelion_argument": "286.3007484831504",
        "aphelion_distance": "4.282169507055286",
        "perihelion_time": "2455101.320863176483",
        "mean_anomaly": "14.344558446982",
        "mean_motion": ".2508704965459059",
        "equinox": "J2000",
        "orbit_class": {
            "orbit_class_type": "APO",
            "orbit_class_description": "Near-Earth asteroid orbits which cross the Earth’s orbit similar to that of 1862 Apollo",
            "orbit_class_range": "a (semi-major axis) > 1.0 AU; q (perihelion) < 1.017 AU"
        }
    },
    "is_sentry_object": false
}